GLOBALSTAR M068         
1 32266U 07048D   25052.83430631 -.00000054  00000+0  27668-3 0  9991
2 32266  51.9887 293.8927 0000207 190.4265 248.0421 12.62815860802982
GLOBALSTAR M079         
1 37188U 10054A   25052.74641245 -.00000092  00000+0  66518-4 0  9995
2 37188  52.0033 131.2079 0000739  94.2814  56.3420 12.62271114661877
GLOBALSTAR M074         
1 37189U 10054B   25052.93577795 -.00000094  00000+0  56312-4 0  9998
2 37189  52.0011 129.9726 0000814 123.6712  47.0684 12.62266574662509
GLOBALSTAR M076         
1 37190U 10054C   25052.96164308 -.00000097  00000+0  40466-4 0  9991
2 37190  52.0025 130.0509 0000996 108.2219  62.4285 12.62277891662221
GLOBALSTAR M077         
1 37191U 10054D   25052.86967028 -.00000097  00000+0  38839-4 0  9992
2 37191  52.0066  87.1567 0000468 118.0939  52.3067 12.62271159662581
GLOBALSTAR M075         
1 37192U 10054E   25052.73307625 -.00000087  00000+0  95442-4 0  9992
2 37192  51.9940 173.0670 0000872 111.8730  39.7605 12.62273187661264
GLOBALSTAR M073         
1 37193U 10054F   25052.38638308 -.00000094  00000+0  56523-4 0  9994
2 37193  52.0054  87.8562 0000567 107.5918 265.7565 12.62263542663213
GLOBALSTAR M083         
1 37739U 11033A   25052.95830648 -.00000096  00000+0  42568-4 0  9998
2 37739  51.9872  35.0002 0000352  59.3225 335.8959 12.62264460632308
GLOBALSTAR M088         
1 37740U 11033B   25052.86464880 -.00000072  00000+0  17586-3 0  9996
2 37740  51.9743 300.8785 0000711  65.1875  24.3790 12.62263177627832
GLOBALSTAR M091         
1 37741U 11033C   25052.96879512 -.00000071  00000+0  18505-3 0  9991
2 37741  51.9982 263.9110 0000817  63.3362  78.8590 12.62265071628633
GLOBALSTAR M085         
1 37742U 11033D   25052.76894256 -.00000078  00000+0  14304-3 0  9992
2 37742  51.9850 215.6573 0000855  83.3850 290.1909 12.62265602629129
GLOBALSTAR M081         
1 37743U 11033E   25052.71597300 -.00000074  00000+0  16360-3 0  9998
2 37743  51.9936 218.5330 0001061  83.6014 289.9375 12.62261041629264
GLOBALSTAR M089         
1 37744U 11033F   25052.53293778 -.00000091  00000+0  71870-4 0  9998
2 37744  51.9923 173.3407 0001057 114.2775 326.5641 12.62266386630087
GLOBALSTAR M084         
1 38040U 11080A   25052.72420987 -.00000091  00000+0  73180-4 0  9991
2 38040  52.0020  39.9824 0000590 114.8984  55.8548 12.62262380608089
GLOBALSTAR M080         
1 38041U 11080B   25052.98486491 -.00000093  00000+0  60941-4 0  9995
2 38041  52.0072  40.7585 0000822 105.8600 287.9795 12.62277237608241
GLOBALSTAR M082         
1 38042U 11080C   25052.92712895 -.00000091  00000+0  71721-4 0  9996
2 38042  52.0104 356.3666 0000405   5.1775  68.2587 12.62273159608941
GLOBALSTAR M092         
1 38043U 11080D   25052.84301497 -.00000105  00000+0 -89612-5 0  9996
2 38043  52.0078  86.9925 0000473 129.8212  41.2152 12.62273119607383
GLOBALSTAR M090         
1 38044U 11080E   25052.87262171 -.00000086  00000+0  97427-4 0  9994
2 38044  51.9914 350.4909 0000489  48.4729  16.1051 12.62266926609051
GLOBALSTAR M086         
1 38045U 11080F   25052.88813854 -.00000087  00000+0  92663-4 0  9994
2 38045  51.9927 350.9857 0001385  65.8805 309.6693 12.62266880609003
GLOBALSTAR M097         
1 39072U 13005A   25052.83220324 -.00000068  00000+0  19689-3 0  9998
2 39072  52.0033 265.5886 0000990  69.4814 290.6159 12.62270352556240
GLOBALSTAR M093         
1 39073U 13005B   25052.88443265 -.00000072  00000+0  17577-3 0  9994
2 39073  51.9792 258.9127 0000992  70.9698 289.1276 12.62261859556205
GLOBALSTAR M094         
1 39074U 13005C   25052.72644327 -.00000096  00000+0  43432-4 0  9996
2 39074  51.9949 173.6603 0000868  86.5022 273.5944 12.62268388557796
GLOBALSTAR M096         
1 39075U 13005D   25052.73969529 -.00000084  00000+0  10761-3 0  9997
2 39075  52.0051 222.0453 0000922  75.7502 284.3467 12.62268499556713
GLOBALSTAR M078         
1 39076U 13005E   25052.95012344 -.00000179  00000+0 -42104-3 0  9998
2 39076  51.9886 306.0690 0000537 326.8733  33.2100 12.62270917555365
GLOBALSTAR M095         
1 39077U 13005F   25052.89786818 -.00000072  00000+0  17613-3 0  9994
2 39077  51.9809 303.4865 0000763  26.7788 333.3117 12.62266745555213
GLOBALSTAR M087         
1 52888U 22064A   25052.77019894 -.00000097  00000+0  35079-4 0  9998
2 52888  51.9786  85.2775 0000290 100.1621 259.9278 12.62268811130468
